{"type":"Feature","properties":{"hash":"a61bdd50a9646a04","number":"119","street":"NW  41ST ST","unit":"","city":"SEATTLE","district":"KING","region":"","postcode":"98107","id":"324731.0"},"geometry":{"type":"Point","coordinates":[-122.3580529,47.6561133]}}
{"type":"Feature","properties":{"hash":"5c32b8c0fc624440","number":"115","street":"NW  41ST ST","unit":"","city":"SEATTLE","district":"KING","region":"","postcode":"98107","id":"316864.0"},"geometry":{"type":"Point","coordinates":[-122.3578935,47.6561136]}}
{"type":"Feature","properties":{"hash":"c9959d4f7656d71f","number":"111","street":"NW  41ST ST","unit":"","city":"SEATTLE","district":"KING","region":"","postcode":"98107","id":"331314.0"},"geometry":{"type":"Point","coordinates":[-122.3577311,47.656114]}}
{"type":"Feature","properties":{"hash":"957a952dfffd9bec","number":"4015","street":"1ST AVE NW","unit":"","city":"SEATTLE","district":"KING","region":"","postcode":"98107","id":"323422.0"},"geometry":{"type":"Point","coordinates":[-122.357475,47.6560154]}}
{"type":"Feature","properties":{"hash":"7c25075d16429f05","number":"4017","street":"1ST AVE NW","unit":"","city":"SEATTLE","district":"KING","region":"","postcode":"98107","id":"315561.0"},"geometry":{"type":"Point","coordinates":[-122.3574725,47.656118]}}
{"type":"Feature","properties":{"hash":"5a3b04c14534f2ef","number":"4012","street":"1ST AVE NW","unit":"","city":"SEATTLE","district":"KING","region":"","postcode":"98107","id":"329999.0"},"geometry":{"type":"Point","coordinates":[-122.3568924,47.6560467]}}
{"type":"Feature","properties":{"hash":"47e65bc23864fc8f","number":"4018","street":"1ST AVE NW","unit":"","city":"SEATTLE","district":"KING","region":"","postcode":"98107","id":"322118.0"},"geometry":{"type":"Point","coordinates":[-122.3568913,47.6561978]}}
{"type":"Feature","properties":{"hash":"19c208da7540af00","number":"109","street":"N  41ST ST","unit":"","city":"SEATTLE","district":"KING","region":"","postcode":"98103","id":"314245.0"},"geometry":{"type":"Point","coordinates":[-122.3566485,47.6561695]}}
{"type":"Feature","properties":{"hash":"9e41d74f3b43702b","number":"115","street":"N  41ST ST","unit":"","city":"SEATTLE","district":"KING","region":"","postcode":"98103","id":"328691.0"},"geometry":{"type":"Point","coordinates":[-122.3564862,47.6561698]}}
{"type":"Feature","properties":{"hash":"3946368c428eba96","number":"119","street":"N  41ST ST","unit":"","city":"SEATTLE","district":"KING","region":"","postcode":"98103","id":"320802.0"},"geometry":{"type":"Point","coordinates":[-122.3563205,47.6560967]}}
{"type":"Feature","properties":{"hash":"e32dce20f093e144","number":"121","street":"N  41ST ST","unit":"","city":"SEATTLE","district":"KING","region":"","postcode":"98103","id":"1343107.0"},"geometry":{"type":"Point","coordinates":[-122.3562719,47.6561927]}}
{"type":"Feature","properties":{"hash":"bd24ecd46584831e","number":"207","street":"N  41ST ST","unit":"","city":"SEATTLE","district":"KING","region":"","postcode":"98103","id":"312939.0"},"geometry":{"type":"Point","coordinates":[-122.3561605,47.6561171]}}
{"type":"Feature","properties":{"hash":"7003b48c8ad8452f","number":"209","street":"N  41ST ST","unit":"","city":"SEATTLE","district":"KING","region":"","postcode":"98103","id":"327356.0"},"geometry":{"type":"Point","coordinates":[-122.3559982,47.6561175]}}
{"type":"Feature","properties":{"hash":"0da7adba5c6140f2","number":"4011","street":"GREENWOOD AVE N","unit":"","city":"SEATTLE","district":"KING","region":"","postcode":"98103","id":"319469.0"},"geometry":{"type":"Point","coordinates":[-122.3557498,47.6560182]}}
{"type":"Feature","properties":{"hash":"e4f6485625c5da21","number":"215","street":"N  41ST ST","unit":"","city":"SEATTLE","district":"KING","region":"","postcode":"98103","id":"311639.0"},"geometry":{"type":"Point","coordinates":[-122.3557542,47.6561796]}}
{"type":"Feature","properties":{"hash":"8491c15d79180f00","number":"217","street":"N  41ST ST","unit":"","city":"SEATTLE","district":"KING","region":"","postcode":"98103","id":"833770.0"},"geometry":{"type":"Point","coordinates":[-122.3557323,47.6561824]}}
{"type":"Feature","properties":{"hash":"03521141f5aeccac","number":"2310","street":"NE  117TH ST","unit":"","city":"SEATTLE","district":"KING","region":"","postcode":"98125","id":"271320.0"},"geometry":{"type":"Point","coordinates":[-122.303891,47.7140277]}}
{"type":"Feature","properties":{"hash":"43aa6087616f0224","number":"2300","street":"NE  117TH ST","unit":"","city":"SEATTLE","district":"KING","region":"","postcode":"98125","id":"260764.0"},"geometry":{"type":"Point","coordinates":[-122.3042165,47.7140308]}}
{"type":"Feature","properties":{"hash":"3623f987bf2b06e7","number":"11717","street":"23RD PL NE","unit":"","city":"SEATTLE","district":"KING","region":"","postcode":"98125","id":"912907.0"},"geometry":{"type":"Point","coordinates":[-122.3038454,47.7145154]}}
{"type":"Feature","properties":{"hash":"3c276c1a35b00027","number":"11716","street":"23RD AVE NE","unit":"","city":"SEATTLE","district":"KING","region":"","postcode":"98125","id":"250159.0"},"geometry":{"type":"Point","coordinates":[-122.3040161,47.714477]}}
{"type":"Feature","properties":{"hash":"42316346e968561f","number":"11722","street":"23RD AVE NE","unit":"","city":"SEATTLE","district":"KING","region":"","postcode":"98125","id":"269577.0"},"geometry":{"type":"Point","coordinates":[-122.3040209,47.7147241]}}
{"type":"Feature","properties":{"hash":"1caed688bcc597bb","number":"11730","street":"23RD AVE NE","unit":"","city":"SEATTLE","district":"KING","region":"","postcode":"98125","id":"259016.0"},"geometry":{"type":"Point","coordinates":[-122.3041426,47.7148875]}}
{"type":"Feature","properties":{"hash":"8503186309e89e43","number":"11744","street":"23RD AVE NE","unit":"","city":"SEATTLE","district":"KING","region":"","postcode":"98125","id":"248406.0"},"geometry":{"type":"Point","coordinates":[-122.304149,47.7152172]}}
{"type":"Feature","properties":{"hash":"c0b9808033a83f83","number":"11738","street":"23RD AVE NE","unit":"","city":"SEATTLE","district":"KING","region":"","postcode":"98125","id":"267817.0"},"geometry":{"type":"Point","coordinates":[-122.3041458,47.7150523]}}
{"type":"Feature","properties":{"hash":"0637a8addb1c389c","number":"11758","street":"23RD AVE NE","unit":"","city":"SEATTLE","district":"KING","region":"","postcode":"98125","id":"257258.0"},"geometry":{"type":"Point","coordinates":[-122.3041486,47.7155495]}}
